[{"OBJECT_NAME":"LEMUR-2-KREMPEL-BRO1","OBJECT_ID":"2025-061G","EPOCH":"2026-02-01T21:35:57.633504","MEAN_MOTION":15.13361415,"ECCENTRICITY":0.00192429,"INCLINATION":97.5469,"RA_OF_ASC_NODE":9.831,"ARG_OF_PERICENTER":1.8844,"MEAN_ANOMALY":358.2456,"EPHEMERIS_TYPE":0,"CLASSIFICATION_TYPE":"U","NORAD_CAT_ID":63357,"ELEMENT_SET_NO":999,"REV_AT_EPOCH":4716,"BSTAR":0.0002399766,"MEAN_MOTION_DOT":4.231e-5,"MEAN_MOTION_DDOT":0},{"OBJECT_NAME":"LEMUR-2-LANGER2SPACE","OBJECT_ID":"2025-061H","EPOCH":"2026-02-01T21:34:46.314624","MEAN_MOTION":15.13042445,"ECCENTRICITY":0.00175532,"INCLINATION":97.5472,"RA_OF_ASC_NODE":9.6996,"ARG_OF_PERICENTER":11.3081,"MEAN_ANOMALY":348.8541,"EPHEMERIS_TYPE":0,"CLASSIFICATION_TYPE":"U","NORAD_CAT_ID":63358,"ELEMENT_SET_NO":999,"REV_AT_EPOCH":4715,"BSTAR":0.00025296319,"MEAN_MOTION_DOT":4.421e-5,"MEAN_MOTION_DDOT":0},{"OBJECT_NAME":"LEMUR-2-BALTO","OBJECT_ID":"2025-052BH","EPOCH":"2026-02-01T16:58:06.239424","MEAN_MOTION":14.98363491,"ECCENTRICITY":0.00039068,"INCLINATION":97.7041,"RA_OF_ASC_NODE":287.9716,"ARG_OF_PERICENTER":99.8339,"MEAN_ANOMALY":260.3325,"EPHEMERIS_TYPE":0,"CLASSIFICATION_TYPE":"U","NORAD_CAT_ID":63395,"ELEMENT_SET_NO":999,"REV_AT_EPOCH":4846,"BSTAR":0.00056413563,"MEAN_MOTION_DOT":6.669e-5,"MEAN_MOTION_DDOT":0}]
