LEMUR-2-KREMPEL-BRO1    
1 63357U 25061G   26032.89997261  .00004231  00000+0  23998-3 0  9995
2 63357  97.5469   9.8310 0019242   1.8844 358.2456 15.13361415 47161
LEMUR-2-LANGER2SPACE    
1 63358U 25061H   26032.89914716  .00004421  00000+0  25296-3 0  9994
2 63358  97.5472   9.6996 0017553  11.3081 348.8541 15.13042445 47154
LEMUR-2-BALTO           
1 63395U 25052BH  26032.70701666  .00006669  00000+0  56414-3 0  9995
2 63395  97.7041 287.9716 0003906  99.8339 260.3325 14.98363491 48466
